SARSAT 7 (NOAA 15)      
1 25338U 98030A   13054.12282082  .00000235  00000-0  11873-3 0  6326
2 25338  98.7143  44.9957 0011594  98.6480 261.6017 14.25180895768599
SARSAT 8 (NOAA 16)      
1 26536U 00055A   13054.09725698  .00000106  00000-0  81688-4 0  1108
2 26536  99.0583 105.6511 0011297  97.2866 262.9572 14.12842032640465
GPS BIIR-07 [DASS]      
1 26690U 01004A   13053.59253050  .00000037  00000-0  10000-3 0  7597
2 26690  53.1643 223.6705 0139142 238.7987 119.8115  2.00552628 88435
GOES 12                 
1 26871U 01031A   13054.25662917 -.00000293  00000-0  10000-3 0  9449
2 26871   2.8084  70.4548 0002019 311.2984 164.3885  1.00277292 42513
SARSAT 9 (NOAA 17)      
1 27453U 02032A   13054.27262192  .00000142  00000-0  78760-4 0   330
2 27453  98.3185  74.3644 0012324 136.5219 223.6925 14.24542076554507
MSG-1                   
1 27509U 02040B   13054.18327191  .00000016  00000-0  10000-3 0  2639
2 27509   1.8872  62.1036 0000326  99.1346  62.0283  1.00267158 38509
GPS BIIR-08 [DASS]      
1 27663U 03005A   13053.95801447 -.00000011  00000-0  10000-3 0  1913
2 27663  56.3693  46.2760 0069767   0.4144 359.6132  2.00574720 73793
INSAT 3A                
1 27714U 03013A   13054.88040013 -.00000266  00000-0  10000-3 0  5507
2 27714   0.0562 272.4769 0005264  31.4252 260.4263  1.00271498 36214
GPS BIIR-11 [DASS]      
1 28190U 04009A   13053.57700224  .00000010  00000-0  10000-3 0  6400
2 28190  55.1194 108.7493 0088139  14.8538 345.4766  2.00564672 65454
GPS BIIR-12 [DASS]      
1 28361U 04023A   13053.36690708  .00000009  00000-0  10000-3 0  4594
2 28361  54.8266 284.2688 0082540 194.7246 165.1020  2.00553981 63538
GPS BIIR-13 [DASS]      
1 28474U 04045A   13053.36407275 -.00000023  00000-0  10000-3 0  3460
2 28474  53.7856 162.4165 0121207 208.0335 151.2954  2.00571114 60891
SARSAT 10 (NOAA 18)     
1 28654U 05018A   13054.24630811  .00000408  00000-0  24894-3 0  5175
2 28654  99.0824  20.9071 0014431 166.2130 193.9450 14.11775122399980
GPS IIR-14M [DASS]      
1 28874U 05038A   13053.72178531  .00000014  00000-0  10000-3 0  6065
2 28874  55.2775 105.7471 0083494 233.2824 126.0243  2.00573976 54320
MSG-2                   
1 28912U 05049B   13054.83063267  .00000055  00000-0  10000-3 0  4379
2 28912   0.3973  10.7773 0003234 308.0966 143.3959  1.00269388 26363
GOES 13                 
1 29155U 06018A   13051.41999197 -.00000259  00000-0  10000-3 0  4307
2 29155   0.3928  90.9255 0001911 319.2552 176.7385  1.00267877 24736
SARSAT 11 (METOP-A)     
1 29499U 06044A   13054.27162775  .00000711  00000-0  34454-3 0  9764
2 29499  98.6657 115.5118 0001903  66.8692 293.2738 14.21511287329390
GPS IIR-16M [DASS]      
1 29601U 06052A   13053.27363778 -.00000013  00000-0  10000-3 0   299
2 29601  56.3256  45.2525 0042029   5.4166 354.6526  2.00569407 45923
GPS IIR-17M [DASS]      
1 32260U 07047A   13053.58514984  .00000012  00000-0  00000+0 0  7368
2 32260  53.9777 281.9819 0060058   6.8821 353.2710  2.00559154 39324
GPS IIR-18M [DASS]      
1 32384U 07062A   13053.90064818  .00000016  00000-0  10000-3 0  7734
2 32384  55.3096 106.2393 0021089 293.5397  66.3207  2.00560221 38050
SARSAT 12 (NOAA 19)     
1 33591U 09005A   13054.31067246  .00000460  00000-0  27778-3 0  7045
2 33591  98.8912 357.3337 0014540  34.5606 325.6512 14.11463423208439
GOES 14                 
1 35491U 09033A   13052.32867208 -.00000095  00000-0  10000-3 0  8486
2 35491   0.0207 235.8079 0004001 357.8443 290.5557  1.00272289 13419
GOES 15                 
1 36411U 10008A   13054.47663101  .00000081  00000-0  10000-3 0  4544
2 36411   0.0572 254.5192 0002339  15.1594 280.1283  1.00267300 10937
ELEKTRO-L 1             
1 37344U 11001A   13053.83563017 -.00000106  00000-0  10000-3 0  5481
2 37344   0.0453 339.2754 0000511 256.5211 293.9221  1.00272946  7722
GLONASS-K 1             
1 37372U 11009A   13053.74745981  .00000024  00000-0  10000-3 0  5941
2 37372  64.8444 117.9622 0006482 237.6000 271.3768  2.13107383 15480
LUCH 5A                 
1 37951U 11074B   13053.84559390 -.00000058  00000-0  00000+0 0  2876
2 37951   3.9453 261.0570 0002625  12.7762 350.5028  1.00270131  4431
MSG-3                   
1 38552U 12035B   13054.32387237 -.00000015  00000-0  10000-3 0  2345
2 38552   1.3390 248.7760 0000996 146.8441 234.1756  1.00268123  2482
SARSAT 13 (METOP-B)     
1 38771U 12049A   13054.23930121 -.00000143  00000-0 -45346-4 0  1444
2 38771  98.7171 116.0965 0002673 132.7149 227.4252 14.21484059 22527
GALILEO-FM3 (GSAT0103)  
1 38857U 12055A   13053.69062645  .00000056  00000-0  10000-3 0   574
2 38857  55.2746 235.8409 0000702 162.1222 197.8781  1.70473404  2270
GALILEO-FM4 (GSAT0104)  
1 38858U 12055B   13051.86574515  .00000056  00000-0  00000+0 0   515
2 38858  55.2737 235.8902 0000979  88.1956 271.8201  1.70473472  2248
